#aV2010  8 26  0  0   .00000000      96 DD+AD WGS84 FIT  NGA
## 1598 345600.00000000   900.00000000 55434  .0000000000000
+   32     1  2  3  4  5  6  7  8  9 10 11 12 13 14 15 16 17
+         18 19 20 21 22 23 24 25 26 27 28 29 30 31 32  0  0
+          0  0  0  0  0  0  0  0  0  0  0  0  0  0  0  0  0
+          0  0  0  0  0  0  0  0  0  0  0  0  0  0  0  0  0
+          0  0  0  0  0  0  0  0  0  0  0  0  0  0  0  0  0
++         0  0  0  0  0  0  0  0  0  0  0  0  0  0  0  0  0
++         0  0  0  0  0  0  0  0  0  0  0  0  0  0  0  0  0
++         0  0  0  0  0  0  0  0  0  0  0  0  0  0  0  0  0
++         0  0  0  0  0  0  0  0  0  0  0  0  0  0  0  0  0
++         0  0  0  0  0  0  0  0  0  0  0  0  0  0  0  0  0
%c cc cc ccc ccc cccc cccc cccc cccc ccccc ccccc ccccc ccccc
%c cc cc ccc ccc cccc cccc cccc cccc ccccc ccccc ccccc ccccc
%f  0.0000000  0.000000000  0.00000000000  0.000000000000000
%f  0.0000000  0.000000000  0.00000000000  0.000000000000000
%i    0    0    0    0      0      0      0      0         0
%i    0    0    0    0      0      0      0      0         0
/*      NGA, ST. LOUIS,MO.                                  
/*   EPHEMERIS COMPUTED FROM  3 DAYS OF DATA                
/* CCCCCCCCCCCCCCCCCCCCCCCCCCCCCCCCCCCCCCCCCCCCCCCCCCCCCCCCC
/* CCCCCCCCCCCCCCCCCCCCCCCCCCCCCCCCCCCCCCCCCCCCCCCCCCCCCCCCC
*  2010  8 26  3 45   .00000000                                                 
P  1 -14338.512733   6002.679213  21432.312538   -155.824408                    
V  1 -17382.018204 -21266.078157  -5518.402558      -.039804                    
P  2  18312.911930 -13454.752451  13351.389314    283.648013                    
V  2  17467.090837   -246.520675 -24658.947375       .028681                    
P  3  -9299.968942  24130.659083   4823.420664    599.833995                    
V  3  -2479.160625  -7443.293868  30404.395285       .049538                    
P  4  25954.866879  -6084.368715   2116.738002    154.872187                    
V  4   3386.148854   2657.594116 -30876.680016       .085689                    
P  5   4618.854003 -16598.515489  20180.504631    -28.400747                    
V  5  17406.461802  18921.105216  11659.687810      -.045860                    
P  6 -13749.086607  20569.597253   9598.059098    519.278640                    
V  6    363.831799 -12496.676257  27961.385980      -.149787                    
P  7  20509.141380   7148.563736  15408.590926     -1.949067                    
V  7 -18927.680376   4888.644657  22723.201043      -.000030                    
P  8  26406.214470    537.055206   4857.303838      6.516636                    
V  8  -5908.194771   1868.805652  31336.687028       .000480                    
P  9   -857.506714 -15095.021603 -22385.034009     26.554749                    
V  9  26536.413225  -5219.105105   2586.231715       .022933                    
P 10  15393.108892  -4695.820971  20993.544259    -50.631622                    
V 10  16473.527426  21482.777902  -6863.354781      -.009444                    
P 11   7587.522375  15103.350212 -20775.391291    -85.081053                    
V 11 -23908.581356  10456.771648   -772.978597      -.026092                    
P 12 -10253.219872 -22692.012825  -9419.580397    -79.393676                    
V 12   9216.573826   7901.184967 -28805.198441       .037939                    
P 13   8781.788809  13677.129775  20860.197113    298.930791                    
V 13 -11551.543469  24111.403291 -10920.840809      -.008651                    
P 14 -16794.782885   7439.865147 -18978.562513     82.238384                    
V 14   8447.247545 -22924.559811 -16470.783190       .038047                    
P 15   4459.606977 -25464.969211  -5785.589470   -218.403867                    
V 15   5310.568853  -5994.639765  30510.135311       .055460                    
P 16  -9673.345530  11710.651095  21795.474819   -102.639711                    
V 16 -17423.494698 -21399.204419   4039.547760      -.035043                    
P 17  16621.907546  -3633.943122 -20232.294983    168.130982                    
V 17  -8453.956625  24601.365865 -11515.439187       .015719                    
P 18 -19812.053073 -16432.116232  -7022.113026     89.226113                    
V 18  -3321.331442  -9172.757700  29230.418915       .022522                    
P 19  -6067.221558  24756.245920  -6830.010585    -60.638135                    
V 19  -6396.565791   6722.879509  30289.041926      -.030628                    
P 20  11358.019502  22418.431162  -8801.582834     51.778865                    
V 20  -9754.140553  -6064.332835 -28405.184010      -.003949                    
P 21 -22873.080160  -6053.573777  13019.774031    -83.643066                    
V 21  15203.702737  -4931.663003  24480.287978      -.026647                    
P 22 -19975.316135  -5509.111456 -16497.986048    164.420525                    
V 22 -11448.350898 -18132.490377  19612.886922      -.008063                    
P 23   3077.425983  21440.927040  15124.940735    356.836254                    
V 23  -8776.022183  17374.843698 -23151.932373      -.017526                    
P 24 -19446.313348  11977.776716 -13290.993856    316.029983                    
V 24 -17313.878698   -604.161743  24893.954407       .032462                    
P 25 -17405.774510 -20053.771795     94.299185    -40.420613                    
V 25   2061.875727  -1973.211809 -31750.640685      -.000890                    
P 26  11609.724148 -23528.229429   1594.876284   -104.971938                    
V 26    959.554292   3420.395036  32599.881698      -.067079                    
P 27   4946.436275 -15240.123106 -20465.828310    183.032057                    
V 27  27061.292222  -5246.234352  10307.941854       .034766                    
P 28  19895.083253   9204.521336 -14714.947569     -5.951511                    
V 28  10484.783268  16425.780000  23401.329391       .013193                    
P 29  -9179.297204 -14824.617332  20132.278167    144.658989                    
V 29  10453.621125 -23131.478213 -12277.636679       .028347                    
P 30 -18274.431854 -19271.761296    682.206432    272.687884                    
V 30   1244.725555  -2972.154047 -31629.069653       .033289                    
P 31 -24920.382996   7930.046909   5362.137454    -14.357032                    
V 31  -6753.149965   -916.258738 -31050.320905       .029412                    
P 32   4813.323710  22702.348261 -12900.867354    -70.101850                    
V 32 -11428.544312 -12502.256381 -25254.513774      -.089366                    
EOF
